STARLINK-35932          
1 66526U 25265L   26067.63899759  .00041123  00000+0  14946-2 0  9998
2 66526  42.9979 283.7947 0000323 336.7520  23.3317 15.27602763 16950
KUIPER-00209            
1 67776U 26030N   26068.61786546  .00035298  00000+0  11963-2 0  9997
2 67776  51.8838 220.0775 0012191  59.1967 301.0215 15.30161950  5077
